NORAD_CAT_ID,OBJECT_NAME,OBJECT_TYPE,EPOCH,MEAN_MOTION,ECCENTRICITY,INCLINATION,RA_OF_ASC_NODE,ARG_OF_PERICENTER,MEAN_ANOMALY,BSTAR,MEAN_MOTION_DOT,MEAN_MOTION_DDOT,TLE_LINE0,TLE_LINE1,TLE_LINE2,SEMIMAJOR_AXIS,PERIOD,APOGEE,PERIGEE,DECAYED
52138.0,STARLINK-3723,PAYLOAD,2022-03-22 18:00:02,15.84377937,3.53e-05,53.2173,126.6928,342.9827,185.8335,-0.0042198,-0.00888188,0.0,0 STARLINK-3723,1 52138U 22029BC  22081.75002315 -.00888188  00000-0 -42198-2 0  9999,2 52138  53.2173 126.6928 0000353 342.9827 185.8335 15.84377937  1819,6696.214,90.887,318.315,317.843,0.0
52138.0,STARLINK-3723,PAYLOAD,2022-03-23 14:00:01,15.82796201,0.00011,53.2172,122.5063,81.9749,160.2773,-0.0044637,-0.00872871,0.0,0 STARLINK-3723,1 52138U 22029BC  22082.58334491 -.00872871  00000-0 -44637-2 0  9996,2 52138  53.2172 122.5063 0001100  81.9749 160.2773 15.82796201  1424,6700.674,90.978,323.276,321.802,0.0
52138.0,STARLINK-3723,PAYLOAD,2022-03-23 20:00:01,15.82330107,0.0001103,53.2174,121.2503,70.3703,157.0095,-0.0046193,-0.00882572,0.0,0 STARLINK-3723,1 52138U 22029BC  22082.83334491 -.00882572  00000-0 -46193-2 0  9992,2 52138  53.2174 121.2503 0001103  70.3703 157.0095 15.82330107  1987,6701.99,91.005,324.594,323.116,0.0
52138.0,STARLINK-3723,PAYLOAD,2022-03-23 22:00:00,15.82168166,9.76e-05,53.2174,120.8319,71.2164,271.1142,-0.0046133999999999,-0.00875426,0.0,0 STARLINK-3723,1 52138U 22029BC  22082.91667824 -.00875426  00000-0 -46134-2 0  9995,2 52138  53.2174 120.8319 0000976  71.2164 271.1142 15.82168166  1474,6702.446999999999,91.014,324.967,323.658,0.0
52138.0,STARLINK-3723,PAYLOAD,2022-03-24 14:00:01,15.80908507,0.0001122,53.2172,117.4938,76.2619,103.9522,-0.0048758999999999,-0.00872561,0.0,0 STARLINK-3723,1 52138U 22029BC  22083.58334491 -.00872561  00000-0 -48759-2 0  9992,2 52138  53.2172 117.4938 0001122  76.2619 103.9522 15.80908507  1580,6706.007,91.087,328.625,327.12,0.0
52138.0,STARLINK-3723,PAYLOAD,2022-03-24 22:00:00,15.8028046,0.0001102,53.2174,115.824,66.8205,211.2028,-0.0050341,-0.00874758,0.0,0 STARLINK-3723,1 52138U 22029BC  22083.91667824 -.00874758  00000-0 -50341-2 0  9998,2 52138  53.2174 115.8240 0001102  66.8205 211.2028 15.80280460  2153,6707.784000000002,91.123,330.3880000000001,328.91,0.0
52138.0,STARLINK-3723,PAYLOAD,2022-03-25 14:00:01,15.79022464,0.0001091,53.2171,112.4954,65.1051,46.2643,-0.0053352,-0.00874959,0.0,0 STARLINK-3723,1 52138U 22029BC  22084.58334491 -.00874959  00000-0 -53352-2 0  9991,2 52138  53.2171 112.4954 0001091  65.1051  46.2643 15.79022464  1742,6711.346,91.196,333.9430000000001,332.4790000000001,0.0
52138.0,STARLINK-3723,PAYLOAD,2022-03-25 20:00:01,15.78550103,0.0001163,53.2175,111.2463,54.2108,38.8853,-0.0054461,-0.00874224,0.0,0 STARLINK-3723,1 52138U 22029BC  22084.83334491 -.00874224  00000-0 -54461-2 0  9996,2 52138  53.2175 111.2463 0001163  54.2108  38.8853 15.78550103  2296,6712.685,91.223,335.331,333.769,0.0
52138.0,STARLINK-3723,PAYLOAD,2022-03-25 22:00:01,15.78392286,0.0001200999999999,53.2174,110.8301,63.0293,143.9471,-0.0054784,-0.00873242,0.0,0 STARLINK-3723,1 52138U 22029BC  22084.91668981 -.00873242  00000-0 -54784-2 0  9996,2 52138  53.2174 110.8301 0001201  63.0293 143.9471 15.78392286  1791,6713.132,91.232,335.8040000000001,334.191,0.0
52138.0,STARLINK-3723,PAYLOAD,2022-03-26 12:00:00,15.7729003,0.0001195,53.2176,107.9259,60.5001,221.7841,-0.0057464,-0.00871647,0.0,0 STARLINK-3723,1 52138U 22029BC  22085.50001157 -.00871647  00000-0 -57464-2 0  9993,2 52138  53.2176 107.9259 0001195  60.5001 221.7841 15.77290030  2401,6716.26,91.296,338.927,337.32199999999995,0.0
52138.0,STARLINK-3723,PAYLOAD,2022-03-26 14:00:01,15.77135297,9.8e-05,53.2171,107.5107,72.6524,323.0672,-0.0058111,-0.00874938,0.0,0 STARLINK-3723,1 52138U 22029BC  22085.58334491 -.00874938  00000-0 -58111-2 0  9997,2 52138  53.2171 107.5107 0000980  72.6524 323.0672 15.77135297  1904,6716.699000000001,91.305,339.222,337.906,0.0
52138.0,STARLINK-3723,PAYLOAD,2022-03-26 22:00:00,15.76504746,0.0001302,53.2172,105.8503,49.7768,79.2151,-0.0059662,-0.00873572,0.0,0 STARLINK-3723,1 52138U 22029BC  22085.91667824 -.00873572  00000-0 -59662-2 0  9998,2 52138  53.2172 105.8503 0001302  49.7768  79.2151 15.76504746  1955,6718.49,91.341,341.2290000000001,339.48,0.0
52138.0,STARLINK-3723,PAYLOAD,2022-03-27 04:00:00,15.7603379,0.0001435,53.2174,104.6083,41.6227,66.8254,-0.0061038,-0.0087508,0.0,0 STARLINK-3723,1 52138U 22029BC  22086.16667824 -.00875080  00000-0 -61038-2 0  9992,2 52138  53.2174 104.6083 0001435  41.6227  66.8254 15.76033790  2509,6719.828,91.369,342.657,340.7290000000001,0.0
52138.0,STARLINK-3723,PAYLOAD,2022-03-27 14:00:01,15.75247791,9.82e-05,53.2172,102.5402,79.4321,233.8313,-0.0063176,-0.0087467999999999,0.0,0 STARLINK-3723,1 52138U 22029BC  22086.58334491 -.00874680  00000-0 -63176-2 0  9999,2 52138  53.2172 102.5402 0000982  79.4321 233.8313 15.75247791  2069,6722.063,91.414,344.588,343.26800000000014,0.0
52138.0,STARLINK-3723,PAYLOAD,2022-03-27 22:00:01,15.74616716,0.0001051,53.2174,100.8843,58.6126,345.7208,-0.0064851,-0.00873478,0.0,0 STARLINK-3723,1 52138U 22029BC  22086.91668981 -.00873478  00000-0 -64851-2 0  9995,2 52138  53.2174 100.8843 0001051  58.6126 345.7208 15.74616716  2119,6723.859,91.451,346.431,345.017,0.0
52138.0,STARLINK-3723,PAYLOAD,2022-03-28 04:00:00,15.74148009,0.0001181,53.2178,99.646,51.343,330.6784,-0.0066649,-0.00878953,0.0,0 STARLINK-3723,1 52138U 22029BC  22087.16667824 -.00878953  00000-0 -66649-2 0  9998,2 52138  53.2178  99.6460 0001181  51.3430 330.6784 15.74148009  2662,6725.194,91.478,347.853,346.264,0.0
52138.0,STARLINK-3723,PAYLOAD,2022-03-28 14:00:01,15.73229916,0.0001144,53.2171,97.583,76.8855,147.1946,-0.00030775,-0.00043641,0.0,0 STARLINK-3723,1 52138U 22029BC  22087.58335648 -.00043641  00000-0 -30775-3 0  9990,2 52138  53.2171  97.5830 0001144  76.8855 147.1946 15.73229916  2730,6727.81,91.531,350.445,348.905,0.0
52138.0,STARLINK-3723,PAYLOAD,2022-03-28 22:00:00,15.73204092,0.0001139,53.2173,95.9318,61.3445,251.6167,3.0898e-06,-1.86e-06,0.0,0 STARLINK-3723,1 52138U 22029BC  22087.91667824 -.00000186  00000-0  30898-5 0  9995,2 52138  53.2173  95.9318 0001139  61.3445 251.6167 15.73204092  2276,6727.884,91.533,350.515,348.982,0.0
52138.0,STARLINK-3723,PAYLOAD,2022-03-29 04:00:00,15.7322006,5.97e-05,53.2162,94.6963,34.7046,254.9293,0.00026743,0.0003711,0.0,0 STARLINK-3723,1 52138U 22029BC  22088.16667824  .00037110  00000-0  26743-3 0  9991,2 52138  53.2162  94.6963 0000597  34.7046 254.9293 15.73220060  2824,6727.8380000000025,91.532,350.105,349.301,0.0
52138.0,STARLINK-3723,PAYLOAD,2022-03-29 14:00:01,15.73286929,8.2e-05,53.2161,92.6349,33.111999999999995,97.7027,-0.00024635,-0.00035176,0.0,0 STARLINK-3723,1 52138U 22029BC  22088.58334491 -.00035176  00000-0 -24635-3 0  9998,2 52138  53.2161  92.6349 0000820  33.1120  97.7027 15.73286929  2378,6727.647,91.528,350.064,348.961,0.0
52138.0,STARLINK-3723,PAYLOAD,2022-03-29 20:00:01,15.73238234,7.290000000000001e-05,53.2164,91.396,48.6212,58.9723,0.00015577,0.00021333,0.0,0 STARLINK-3723,1 52138U 22029BC  22088.83334491  .00021333  00000-0  15577-3 0  9999,2 52138  53.2164  91.3960 0000729  48.6212  58.9723 15.73238234  2926,6727.786,91.531,350.142,349.161,0.0
52138.0,STARLINK-3723,PAYLOAD,2022-03-29 22:00:00,15.73224291,8.190000000000001e-05,53.2162,90.9832,56.3265,163.5192,0.0003572,0.0004986,0.0,0 STARLINK-3723,1 52138U 22029BC  22088.91667824  .00049860  00000-0  35720-3 0  9994,2 52138  53.2162  90.9832 0000819  56.3265 163.5192 15.73224291  2438,6727.826,91.532,350.242,349.14,0.0
52138.0,STARLINK-3723,PAYLOAD,2022-03-30 12:00:00,15.73249252,0.000139,53.2161,88.0985,58.5274,227.0424,-0.00044483,-0.00062717,0.0,0 STARLINK-3723,1 52138U 22029BC  22089.50001157 -.00062717  00000-0 -44483-3 0  9995,2 52138  53.2161  88.0985 0001390  58.5274 227.0424 15.73249252  3038,6727.755,91.53,350.555,348.685,0.0
52138.0,STARLINK-3723,PAYLOAD,2022-03-30 14:00:01,15.732373999999998,0.0001393,53.2159,87.6854,61.4168,336.4643,-0.00040208,-0.0005676,0.0,0 STARLINK-3723,1 52138U 22029BC  22089.58335648 -.00056760  00000-0 -40208-3 0  9990,2 52138  53.2159  87.6854 0001393  61.4168 336.4643 15.73237400  2537,6727.7890000000025,91.531,350.591,348.716,0.0
52138.0,STARLINK-3723,PAYLOAD,2022-03-30 22:00:00,15.73202527,0.0001274999999999,53.216,86.0342,75.337,51.4192,-0.00013457,-0.00019464,0.0,0 STARLINK-3723,1 52138U 22029BC  22089.91667824 -.00019464  00000-0 -13457-3 0  9997,2 52138  53.2160  86.0342 0001275  75.3370  51.4192 15.73202527  2593,6727.888000000001,91.533,350.611,348.895,0.0
52138.0,STARLINK-3723,PAYLOAD,2022-03-31 04:00:00,15.73206816,0.0001114,53.2162,84.7984,66.2854,37.1733,-0.00050225,-0.00070538,0.0,0 STARLINK-3723,1 52138U 22029BC  22090.16667824 -.00070538  00000-0 -50225-3 0  9999,2 52138  53.2162  84.7984 0001114  66.2854  37.1733 15.73206816  3138,6727.876,91.533,350.49,348.991,0.0
52138.0,STARLINK-3723,PAYLOAD,2022-03-31 12:00:00,15.73160353,0.0001043,53.216,83.1497,57.1874,135.1813,0.00064417,0.0009061,0.0,0 STARLINK-3723,1 52138U 22029BC  22090.50001157  .00090610  00000-0  64417-3 0  9997,2 52138  53.2160  83.1497 0001043  57.1874 135.1813 15.73160353  3199,6728.0080000000025,91.535,350.575,349.171,0.0
52138.0,STARLINK-3723,PAYLOAD,2022-03-31 14:00:01,15.73194431,0.0001023,53.2162,82.7367,59.5649,245.0213,0.00032578,0.00045337,0.0,0 STARLINK-3723,1 52138U 22029BC  22090.58334491  .00045337  00000-0  32578-3 0  9994,2 52138  53.2162  82.7367 0001023  59.5649 245.0213 15.73194431  2699,6727.911,91.534,350.464,349.088,0.0
52138.0,STARLINK-3723,PAYLOAD,2022-03-31 22:00:00,15.73241837,9.63e-05,53.2166,81.0853,72.6616,320.8812,0.00063329,0.00089368,0.0,0 STARLINK-3723,1 52138U 22029BC  22090.91667824  .00089368  00000-0  63329-3 0  9990,2 52138  53.2166  81.0853 0000963  72.6616 320.8812 15.73241837  2754,6727.776,91.531,350.289,348.99300000000005,0.0
